SPACEMOBILE-006         
1 67232U 25309A   26076.28183987  .00003349  00000+0  17762-3 0  9990
2 67232  52.9961  32.4322 0009948 203.5173 156.5367 15.18074207 12631
